NORAD_CAT_ID,OBJECT_NAME,OBJECT_TYPE,EPOCH,MEAN_MOTION,ECCENTRICITY,INCLINATION,RA_OF_ASC_NODE,ARG_OF_PERICENTER,MEAN_ANOMALY,BSTAR,MEAN_MOTION_DOT,MEAN_MOTION_DDOT,TLE_LINE0,TLE_LINE1,TLE_LINE2,SEMIMAJOR_AXIS,PERIOD,APOGEE,PERIGEE,DECAYED
54805.0,STARLINK-5417,PAYLOAD,2024-02-04 21:00:47,15.08838121,0.0001375,53.2165,217.7244,94.4312,265.6837,2.5396e-05,1.16e-06,0.0,0 STARLINK-5417,1 54805U 22175AZ  24035.87554645  .00000116  00000-0  25396-4 0  9994,2 54805  53.2165 217.7244 0001375  94.4312 265.6837 15.08838121 64826,6917.886,95.438,540.702,538.8,0.0
54805.0,STARLINK-5417,PAYLOAD,2024-02-05 11:19:15,15.08836727,0.0001356,53.2166,215.048,88.8496,271.2651,2.1706e-06,-2.53e-06,0.0,0 STARLINK-5417,1 54805U 22175AZ  24036.47170927 -.00000253  00000-0  21706-5 0  9993,2 54805  53.2166 215.0480 0001356  88.8496 271.2651 15.08836727 64916,6917.89,95.438,540.693,538.817,0.0
54805.0,STARLINK-5417,PAYLOAD,2024-02-05 19:16:11,15.0883768,0.0001366,53.2167,213.5611,87.8406,272.2743,9.582e-06,-1.35e-06,0.0,0 STARLINK-5417,1 54805U 22175AZ  24036.80290904 -.00000135  00000-0  95820-5 0  9995,2 54805  53.2167 213.5611 0001366  87.8406 272.2743 15.08837680 62805,6917.887,95.438,540.697,538.807,0.0
54805.0,STARLINK-5417,PAYLOAD,2024-02-06 11:10:02,15.08839505,0.000143,53.2171,210.5874,85.5247,274.5909,1.8491e-05,6e-08,0.0,0 STARLINK-5417,1 54805U 22175AZ  24037.46530843  .00000006  00000-0  18491-4 0  9991,2 54805  53.2171 210.5874 0001430  85.5247 274.5909 15.08839505 65066,6917.882,95.438,540.736,538.758,0.0
54805.0,STARLINK-5417,PAYLOAD,2024-02-06 17:31:34,15.08841705,0.0001439,53.2171,209.3981,85.635,274.4806,3.5938e-05,2.84e-06,0.0,0 STARLINK-5417,1 54805U 22175AZ  24037.73026601  .00000284  00000-0  35938-4 0  9996,2 54805  53.2171 209.3981 0001439  85.6350 274.4806 15.08841705 65101,6917.875,95.437,540.736,538.745,0.0
54805.0,STARLINK-5417,PAYLOAD,2024-02-07 11:00:46,15.08862887,8.72e-05,53.2169,206.1236,125.6424,234.4649,0.0003307,4.982e-05,0.0,0 STARLINK-5417,1 54805U 22175AZ  24038.45886825  .00004982  00000-0  33070-3 0  9991,2 54805  53.2169 206.1236 0000872 125.6424 234.4649 15.08862887 63050,6917.81,95.436,540.279,539.072,0.0
54805.0,STARLINK-5417,PAYLOAD,2024-02-07 17:22:21,15.08831252,9.96e-05,53.2169,204.9377,80.4734,279.6371,-7.1529e-05,-1.426e-05,0.0,0 STARLINK-5417,1 54805U 22175AZ  24038.72386039 -.00001426  00000-0 -71529-4 0  9997,2 54805  53.2169 204.9377 0000996  80.4734 279.6371 15.08831252 63090,6917.907,95.438,540.461,539.083,0.0
54805.0,STARLINK-5417,PAYLOAD,2024-02-08 10:51:38,15.08813141,0.0001605,53.2188,201.6652,110.5777,249.5388,-0.00029948,-5.048e-05,0.0,0 STARLINK-5417,1 54805U 22175AZ  24039.45253161 -.00005048  00000-0 -29948-3 0  9998,2 54805  53.2188 201.6652 0001605 110.5777 249.5388 15.08813141 63205,6917.962,95.439,540.938,538.717,0.0
54805.0,STARLINK-5417,PAYLOAD,2024-02-08 14:02:25,15.08812555,0.0001426,53.2174,201.0701,113.1558,246.9585,-0.00029299,-4.944e-05,0.0,0 STARLINK-5417,1 54805U 22175AZ  24039.58501323 -.00004944  00000-0 -29299-3 0  9991,2 54805  53.2174 201.0701 0001426 113.1558 246.9585 15.08812555 65385,6917.964,95.439,540.816,538.843,0.0
54805.0,STARLINK-5417,PAYLOAD,2024-02-08 17:13:11,15.08807489,0.0001379,53.2178,200.4775,96.9403,263.1746,-0.00030274,-5.098e-05,0.0,0 STARLINK-5417,1 54805U 22175AZ  24039.71749990 -.00005098  00000-0 -30274-3 0  9996,2 54805  53.2178 200.4775 0001379  96.9403 263.1746 15.08807489 65400,6917.98,95.44,540.799,538.891,0.0
54805.0,STARLINK-5417,PAYLOAD,2024-02-09 10:42:24,15.08817823,9.31e-05,53.2169,197.2049,98.0813,262.0284,5.4232e-05,5.75e-06,0.0,0 STARLINK-5417,1 54805U 22175AZ  24040.44611852  .00000575  00000-0  54232-4 0  9997,2 54805  53.2169 197.2049 0000931  98.0813 262.0284 15.08817823 63358,6917.948,95.439,540.457,539.169,0.0
54805.0,STARLINK-5417,PAYLOAD,2024-02-09 13:53:09,15.08835759,0.0001091,53.217,196.6101,109.3565,250.7545,0.00020131,2.917e-05,0.0,0 STARLINK-5417,1 54805U 22175AZ  24040.57858468  .00002917  00000-0  20131-3 0  9999,2 54805  53.2170 196.6101 0001091 109.3565 250.7545 15.08835759 65534,6917.893,95.438,540.513,539.004,0.0
54805.0,STARLINK-5417,PAYLOAD,2024-02-09 17:03:55,15.0883727,0.0001024,53.2173,196.0154,103.3134,256.7972,0.00020757,3.017e-05,0.0,0 STARLINK-5417,1 54805U 22175AZ  24040.71106460  .00003017  00000-0  20757-3 0  9999,2 54805  53.2173 196.0154 0001024 103.3134 256.7972 15.08837270 63393,6917.889,95.438,540.462,539.045,0.0
54805.0,STARLINK-5417,PAYLOAD,2024-02-10 10:33:11,15.08827438,0.0001151,53.2177,192.7483,100.3682,259.744,0.0003489,5.267e-05,0.0,0 STARLINK-5417,1 54805U 22175AZ  24041.43971164  .00005267  00000-0  34890-3 0  9992,2 54805  53.2177 192.7483 0001151 100.3682 259.7440 15.08827438 63502,6917.919,95.438,540.58,538.988,0.0
54805.0,STARLINK-5417,PAYLOAD,2024-02-10 13:43:57,15.08829474,0.0001157,53.2175,192.153,101.8555,258.2567,0.0003431,5.175e-05,0.0,0 STARLINK-5417,1 54805U 22175AZ  24041.57219149  .00005175  00000-0  34310-3 0  9990,2 54805  53.2175 192.1530 0001157 101.8555 258.2567 15.08829474 65685,6917.913,95.438,540.578,538.977,0.0
54805.0,STARLINK-5417,PAYLOAD,2024-02-10 16:54:43,15.08832546,0.0001006,53.2178,191.5573,100.45,259.6605,0.00032776,4.931e-05,0.0,0 STARLINK-5417,1 54805U 22175AZ  24041.70467105  .00004931  00000-0  32776-3 0  9995,2 54805  53.2178 191.5573 0001006 100.4500 259.6605 15.08832546 65701,6917.903,95.438,540.464,539.072,0.0
54805.0,STARLINK-5417,PAYLOAD,2024-02-11 13:34:44,15.08847434,0.0001107,53.2182,187.6919,107.6315,252.4798,-4.8825e-05,-1.065e-05,0.0,0 STARLINK-5417,1 54805U 22175AZ  24042.56579448 -.00001065  00000-0 -48825-4 0  9994,2 54805  53.2182 187.6919 0001107 107.6315 252.4798 15.08847434 65831,6917.858,95.437,540.488,538.957,0.0
54805.0,STARLINK-5417,PAYLOAD,2024-02-11 19:56:16,15.08853457,0.0001066,53.2175,186.4972,116.8537,243.2564,-1.9849e-05,-6.04e-06,0.0,0 STARLINK-5417,1 54805U 22175AZ  24042.83074680 -.00000604  00000-0 -19849-4 0  9994,2 54805  53.2175 186.4972 0001066 116.8537 243.2564 15.08853457 63717,6917.839,95.437,540.442,538.967,0.0
54805.0,STARLINK-5417,PAYLOAD,2024-02-12 13:25:31,15.08846568,0.0001098,53.217,183.2218,113.9278,246.1829,-7.7547e-05,-1.522e-05,0.0,0 STARLINK-5417,1 54805U 22175AZ  24043.55939022 -.00001522  00000-0 -77547-4 0  9993,2 54805  53.2170 183.2218 0001098 113.9278 246.1829 15.08846568 65987,6917.86,95.437,540.485,538.966,0.0
54805.0,STARLINK-5417,PAYLOAD,2024-02-12 18:11:40,15.08850531,0.0001344,53.2176,182.3363,77.4871,282.6271,-2.3393e-05,-6.6e-06,0.0,0 STARLINK-5417,1 54805U 22175AZ  24043.75810650 -.00000660  00000-0 -23393-4 0  9992,2 54805  53.2176 182.3363 0001344  77.4871 282.6271 15.08850531 63856,6917.848,95.437,540.643,538.783,0.0
54805.0,STARLINK-5417,PAYLOAD,2024-02-13 14:51:41,15.08836731,0.0001384,53.2186,178.4667,101.668,258.4468,-4.3492e-05,-9.8e-06,0.0,0 STARLINK-5417,1 54805U 22175AZ  24044.61923573 -.00000980  00000-0 -43492-4 0  9994,2 54805  53.2186 178.4667 0001384 101.6680 258.4468 15.08836731 66142,6917.89,95.438,540.713,538.798,0.0
54805.0,STARLINK-5417,PAYLOAD,2024-02-13 18:02:27,15.08839929,0.0001196,53.2176,177.8702,85.7032,274.4096,-4.3283e-06,-3.57e-06,0.0,0 STARLINK-5417,1 54805U 22175AZ  24044.75171287 -.00000357  00000-0 -43283-5 0  9993,2 54805  53.2176 177.8702 0001196  85.7032 274.4096 15.08839929 64008,6917.881,95.438,540.573,538.918,0.0
54805.0,STARLINK-5417,PAYLOAD,2024-02-14 14:42:28,15.08846489,0.0001024,53.2157,174.0128,99.8835,260.2272,-2.6938e-05,-7.17e-06,0.0,0 STARLINK-5417,1 54805U 22175AZ  24045.61282985 -.00000717  00000-0 -26938-4 0  9994,2 54805  53.2157 174.0128 0001024  99.8835 260.2272 15.08846489 66296,6917.861,95.437,540.434,539.017,0.0
54805.0,STARLINK-5417,PAYLOAD,2024-02-15 01:50:10,15.08845933,8.79e-05,53.2147,171.9312,99.5762,260.5329,-3.1768e-05,-7.93e-06,0.0,0 STARLINK-5417,1 54805U 22175AZ  24046.07650768 -.00000793  00000-0 -31768-4 0  9994,2 54805  53.2147 171.9312 0000879  99.5762 260.5329 15.08845933 64207,6917.862,95.437,540.335,539.119,0.0
54805.0,STARLINK-5417,PAYLOAD,2024-02-15 08:11:43,15.08836046,0.0001857,53.2155,170.7417,87.7568,272.3637,-3.0572e-05,-7.75e-06,0.0,0 STARLINK-5417,1 54805U 22175AZ  24046.34148005 -.00000775  00000-0 -30572-4 0  9992,2 54805  53.2155 170.7417 0001857  87.7568 272.3637 15.08836046 64241,6917.892,95.438,541.042,538.473,0.0
54805.0,STARLINK-5417,PAYLOAD,2024-02-15 14:33:16,15.0882877,0.0001353,53.2164,169.5531,89.4927,270.622,-8.9141e-05,-1.706e-05,0.0,0 STARLINK-5417,1 54805U 22175AZ  24046.60644669 -.00001706  00000-0 -89141-4 0  9999,2 54805  53.2164 169.5531 0001353  89.4927 270.6220 15.08828770 66441,6917.915,95.438,540.716,538.844,0.0
54805.0,STARLINK-5417,PAYLOAD,2024-02-15 17:44:02,15.08832278,0.0001469,53.2158,168.9546,100.3429,259.7728,-6.0914e-05,-1.257e-05,0.0,0 STARLINK-5417,1 54805U 22175AZ  24046.73892344 -.00001257  00000-0 -60914-4 0  9996,2 54805  53.2158 168.9546 0001469 100.3429 259.7728 15.08832278 66462,6917.904,95.438,540.785,538.753,0.0
54805.0,STARLINK-5417,PAYLOAD,2024-02-16 11:13:16,15.08848532,0.0001442,53.2184,165.685,97.8789,262.2366,-1.6933e-05,-5.58e-06,0.0,0 STARLINK-5417,1 54805U 22175AZ  24047.46755287 -.00000558  00000-0 -16933-4 0  9996,2 54805  53.2184 165.6850 0001442  97.8789 262.2366 15.08848532 64413,6917.854,95.437,540.717,538.722,0.0
54805.0,STARLINK-5417,PAYLOAD,2024-02-16 14:24:02,15.08855472,0.0001434,53.2176,165.0908,96.7589,263.3566,-9.1857e-07,-3.03e-06,0.0,0 STARLINK-5417,1 54805U 22175AZ  24047.60002718 -.00000303  00000-0 -91857-6 0  9994,2 54805  53.2176 165.0908 0001434  96.7589 263.3566 15.08855472 66595,6917.833,95.437,540.69,538.706,0.0
54805.0,STARLINK-5417,PAYLOAD,2024-02-17 11:04:04,15.08827408,0.00015,53.2186,161.2277,87.6766,272.4398,9.1363e-05,1.166e-05,0.0,0 STARLINK-5417,1 54805U 22175AZ  24048.46116266  .00001166  00000-0  91363-4 0  9999,2 54805  53.2186 161.2277 0001500  87.6766 272.4398 15.08827408 64560,6917.919,95.438,540.822,538.746,0.0
